[{"OBJECT_NAME":"STARLINK-5861","OBJECT_ID":"2023-037H","EPOCH":"2026-03-09T22:11:41.498304","MEAN_MOTION":14.98330597,"ECCENTRICITY":0.00018361,"INCLINATION":69.9989,"RA_OF_ASC_NODE":303.8136,"ARG_OF_PERICENTER":272.3299,"MEAN_ANOMALY":87.765,"EPHEMERIS_TYPE":0,"CLASSIFICATION_TYPE":"U","NORAD_CAT_ID":55921,"ELEMENT_SET_NO":999,"REV_AT_EPOCH":16352,"BSTAR":-1.3230461e-5,"MEAN_MOTION_DOT":-2.51e-6,"MEAN_MOTION_DDOT":0},{"OBJECT_NAME":"POEM-2","OBJECT_ID":"2023-057A","EPOCH":"2026-03-09T23:37:57.201312","MEAN_MOTION":14.94660083,"ECCENTRICITY":0.00213726,"INCLINATION":9.8873,"RA_OF_ASC_NODE":262.7521,"ARG_OF_PERICENTER":321.9306,"MEAN_ANOMALY":37.9396,"EPHEMERIS_TYPE":0,"CLASSIFICATION_TYPE":"U","NORAD_CAT_ID":56308,"ELEMENT_SET_NO":999,"REV_AT_EPOCH":15739,"BSTAR":0.0002074301,"MEAN_MOTION_DOT":3.02e-5,"MEAN_MOTION_DDOT":0}]
